OBJECT_NAME,OBJECT_ID,EPOCH,MEAN_MOTION,ECCENTRICITY,INCLINATION,RA_OF_ASC_NODE,ARG_OF_PERICENTER,MEAN_ANOMALY,EPHEMERIS_TYPE,CLASSIFICATION_TYPE,NORAD_CAT_ID,ELEMENT_SET_NO,REV_AT_EPOCH,BSTAR,MEAN_MOTION_DOT,MEAN_MOTION_DDOT
ATLAS CENTAUR 2,1963-047A,2026-07-11T10:50:39.039072,14.12561110,.054572,30.3509,223.6938,91.5094,274.8057,0,U,694,999,14913,.83841E-4,.776E-5,0
THOR AGENA D R/B,1964-002A,2026-07-11T12:10:00.604416,14.34075077,.0031757,99.1155,212.5506,257.6503,102.1124,0,U,733,999,25604,.45811E-4,.8E-6,0
SL-3 R/B,1964-053B,2026-07-11T11:39:59.408064,14.61438345,.0080391,65.0780,328.2644,253.4863,105.7394,0,U,877,999,28488,.31479E-4,.37E-6,0
SL-8 R/B,1967-045B,2026-07-11T05:40:30.079200,14.45694158,.0063021,74.0113,117.3428,95.1111,265.7244,0,U,2802,999,10687,.44271E-4,.133E-5,0
SL-8 R/B,1968-040B,2026-07-11T03:09:13.587264,15.03928907,.0025273,74.0292,61.3176,210.1545,149.8191,0,U,3230,999,10856,.11401E-3,.1539E-4,0
OAO 2,1968-110A,2026-07-11T08:05:47.526432,14.47361007,.0004865,34.9938,294.8353,110.5272,249.5941,0,U,3597,999,3702,.32784E-4,.103E-5,0
ISIS 1,1969-009A,2026-07-11T06:25:35.810112,11.30436233,.1707074,88.4450,141.7552,199.5844,153.1057,0,U,3669,999,36249,.13884E-4,.28E-6,0
SERT 2,1970-009A,2026-07-11T06:42:32.490144,13.58740781,.0004382,99.2841,128.6999,199.6930,316.2596,0,U,4327,999,79667,.17895E-4,-.28E-6,0
SL-3 R/B,1971-028B,2026-07-11T10:50:19.656960,15.72169849,.0014537,81.2318,257.9247,194.9984,165.0846,0,U,5118,999,805,.28705E-3,.38083E-3,0
ASTEX 1,1971-089A,2026-07-11T11:41:51.040320,14.50869797,.0016773,92.7004,191.6818,34.1888,326.0395,0,U,5560,999,88025,.50835E-4,.2E-5,0
SL-8 R/B,1971-119B,2026-07-11T11:29:10.228704,14.39704465,.0542926,73.8883,303.9213,245.0028,109.3822,0,U,5730,999,67329,.21735E-3,.4226E-4,0
OAO 3 (COPERNICUS),1972-065A,2026-07-11T10:38:16.645344,14.60073657,.0005915,35.0065,312.1960,92.5560,323.4739,0,U,6153,999,86429,.35095E-4,.15E-5,0
ATLAS CENTAUR R/B,1972-065B,2026-07-11T07:51:12.092256,14.77962655,.0033931,35.0021,301.0182,330.3710,29.5069,0,U,6155,999,85956,.63225E-4,.443E-5,0
SL-8 R/B,1975-112B,2026-07-10T08:12:58.933728,14.38256404,.0016373,74.0602,153.2754,216.9313,143.0715,0,U,8459,999,64950,.53171483E-4,.136E-5,0
SL-3 R/B,1977-057B,2026-07-11T10:56:15.896256,15.48361130,.0006809,97.5846,10.1818,183.3917,176.7288,0,U,10114,999,68746,.12862E-3,.6711E-4,0
SEASAT 1,1978-064A,2026-07-09T23:53:57.314400,14.46258213,.00011983,108.0184,22.1698,249.4991,110.6026,0,U,10967,999,52419,.58253768E-4,.71E-6,0
SL-14 R/B,1979-011B,2026-07-11T09:15:40.520160,14.92036078,.001614,82.5251,339.1877,9.8534,350.2998,0,U,11267,999,54722,.30119E-4,.332E-5,0
SL-8 R/B,1979-089B,2026-07-11T11:30:49.683744,14.42414068,.0015846,74.0670,221.8874,357.6338,2.4740,0,U,11574,999,45395,.40764E-4,.109E-5,0
SL-14 R/B,1980-005B,2026-07-11T11:31:54.736032,14.91048105,.0017244,82.5134,189.7951,108.8216,251.4876,0,U,11672,999,49493,.27434E-4,.298E-5,0
SL-8 R/B,1981-003B,2026-07-11T09:34:58.147104,15.14975936,.0250135,82.9361,175.2648,106.7994,256.0840,0,U,12139,999,33338,.26732E-3,.11249E-3,0
SL-3 R/B,1981-046B,2026-07-11T11:38:23.813376,15.44723923,.0015993,81.2305,140.7880,311.3514,48.6354,0,U,12465,999,45752,.15885E-3,.7484E-4,0
SL-3 R/B,1981-103B,2026-07-11T12:06:24.950016,15.22472218,.0011802,81.1579,68.0605,225.1141,134.9134,0,U,12904,999,99206,.9116E-4,.2139E-4,0
SL-3 R/B,1982-013B,2026-07-11T12:49:04.488672,15.22945034,.0022826,81.1732,15.4741,120.2536,240.0960,0,U,13068,999,42319,.10578E-3,.2527E-4,0
SL-3 R/B,1982-039B,2026-07-11T11:26:40.169184,15.10684791,.002793,81.1505,73.0261,271.3194,88.4832,0,U,13154,999,40032,.11711E-3,.1979E-4,0
SL-3 R/B,1982-079B,2026-07-11T12:15:16.606368,15.25991807,.0024972,81.1449,46.7111,105.4474,254.9520,0,U,13403,999,39657,.11539E-3,.3019E-4,0
SL-14 R/B,1982-092B,2026-07-11T13:11:49.079040,14.86763320,.0018833,82.5667,25.5026,248.6581,170.7108,0,U,13553,999,34733,.24699E-4,.245E-5,0
SL-3 R/B,1983-010B,2026-07-11T12:47:55.467168,15.49846190,.0013573,81.0997,209.9652,337.2461,22.8182,0,U,13819,999,37710,.15818E-3,.8879E-4,0
SL-3 R/B,1983-075B,2026-07-11T11:44:28.125024,15.40932721,.0021895,97.6105,201.9933,142.1015,218.1777,0,U,14208,999,34920,.15403E-3,.6297E-4,0
COSMOS 1536,1984-013A,2026-07-11T12:04:16.457664,15.25316212,.0013588,82.5450,344.6202,201.4449,158.6222,0,U,14699,999,29148,.16508E-3,.42E-4,0
SL-14 R/B,1984-027B,2026-07-11T06:04:11.444736,14.86077557,.0016388,82.5431,129.1503,285.8943,74.0467,0,U,14820,999,26598,.24137E-4,.236E-5,0
SL-8 R/B,1985-006B,2026-07-09T00:30:14.372352,14.37843035,.00192651,74.0450,37.8842,281.8181,238.1093,0,U,15483,999,17146,.47310842E-4,.116E-5,0
