ATLAS CENTAUR 2         
1 00694U 63047A   26192.45184073  .00000776  00000+0  83841-4 0  9998
2 00694  30.3509 223.6938 0545720  91.5094 274.8057 14.12561110149138
THOR AGENA D R/B        
1 00733U 64002A   26192.50695144  .00000080  00000+0  45811-4 0  9999
2 00733  99.1155 212.5506 0031757 257.6503 102.1124 14.34075077256043
SL-3 R/B                
1 00877U 64053B   26192.48610426  .00000037  00000+0  31479-4 0  9998
2 00877  65.0780 328.2644 0080391 253.4863 105.7394 14.61438345284889
SL-8 R/B                
1 02802U 67045B   26192.23645925  .00000133  00000+0  44271-4 0  9998
2 02802  74.0113 117.3428 0063021  95.1111 265.7244 14.45694158106875
SL-8 R/B                
1 03230U 68040B   26192.13140726  .00001539  00000+0  11401-3 0  9997
2 03230  74.0292  61.3176 0025273 210.1545 149.8191 15.03928907108562
OAO 2                   
1 03597U 68110A   26192.33735563  .00000103  00000+0  32784-4 0  9996
2 03597  34.9938 294.8353 0004865 110.5272 249.5941 14.47361007 37026
ISIS 1                  
1 03669U 69009A   26192.26777558  .00000028  00000+0  13884-4 0  9992
2 03669  88.4450 141.7552 1707074 199.5844 153.1057 11.30436233362498
SERT 2                  
1 04327U 70009A   26192.27954271 -.00000028  00000+0  17895-4 0  9993
2 04327  99.2841 128.6999 0004382 199.6930 316.2596 13.58740781796670
SL-3 R/B                
1 05118U 71028B   26192.45161640  .00038083  00000+0  28705-3 0  9996
2 05118  81.2318 257.9247 0014537 194.9984 165.0846 15.72169849  8055
ASTEX 1                 
1 05560U 71089A   26192.48739630  .00000200  00000+0  50835-4 0  9997
2 05560  92.7004 191.6818 0016773  34.1888 326.0395 14.50869797880257
SL-8 R/B                
1 05730U 71119B   26192.47859061  .00004226  00000+0  21735-3 0  9998
2 05730  73.8883 303.9213 0542926 245.0028 109.3822 14.39704465673299
OAO 3 (COPERNICUS)      
1 06153U 72065A   26192.44324821  .00000150  00000+0  35095-4 0  9994
2 06153  35.0065 312.1960 0005915  92.5560 323.4739 14.60073657864294
ATLAS CENTAUR R/B       
1 06155U 72065B   26192.32722329  .00000443  00000+0  63225-4 0  9999
2 06155  35.0021 301.0182 0033931 330.3710  29.5069 14.77962655859567
SL-8 R/B                
1 08459U 75112B   26191.34234877  .00000136  00000+0  53171-4 0  9999
2 08459  74.0602 153.2754 0016373 216.9313 143.0715 14.38256404649501
SL-3 R/B                
1 10114U 77057B   26192.45573954  .00006711  00000+0  12862-3 0  9991
2 10114  97.5846  10.1818 0006809 183.3917 176.7288 15.48361130687464
SEASAT 1                
1 10967U 78064A   26190.99580225  .00000071  00000+0  58254-4 0  9991
2 10967 108.0184  22.1698 0001198 249.4991 110.6026 14.46258213524195
SL-14 R/B               
1 11267U 79011B   26192.38588565  .00000332  00000+0  30119-4 0  9998
2 11267  82.5251 339.1877 0016140   9.8534 350.2998 14.92036078547227
SL-8 R/B                
1 11574U 79089B   26192.47974171  .00000109  00000+0  40764-4 0  9995
2 11574  74.0670 221.8874 0015846 357.6338   2.4740 14.42414068453952
SL-14 R/B               
1 11672U 80005B   26192.48049463  .00000298  00000+0  27434-4 0  9990
2 11672  82.5134 189.7951 0017244 108.8216 251.4876 14.91048105494931
SL-8 R/B                
1 12139U 81003B   26192.39928411  .00011249  00000+0  26732-3 0  9994
2 12139  82.9361 175.2648 0250135 106.7994 256.0840 15.14975936333387
SL-3 R/B                
1 12465U 81046B   26192.48499784  .00007484  00000+0  15885-3 0  9992
2 12465  81.2305 140.7880 0015993 311.3514  48.6354 15.44723923457525
SL-3 R/B                
1 12904U 81103B   26192.50445544  .00002139  00000+0  91160-4 0  9995
2 12904  81.1579  68.0605 0011802 225.1141 134.9134 15.22472218992067
SL-3 R/B                
1 13068U 82013B   26192.53407973  .00002527  00000+0  10578-3 0  9999
2 13068  81.1732  15.4741 0022826 120.2536 240.0960 15.22945034423198
SL-3 R/B                
1 13154U 82039B   26192.47685381  .00001979  00000+0  11711-3 0  9997
2 13154  81.1505  73.0261 0027930 271.3194  88.4832 15.10684791400327
SL-3 R/B                
1 13403U 82079B   26192.51060887  .00003019  00000+0  11539-3 0  9996
2 13403  81.1449  46.7111 0024972 105.4474 254.9520 15.25991807396573
SL-14 R/B               
1 13553U 82092B   26192.54987360  .00000245  00000+0  24699-4 0  9994
2 13553  82.5667  25.5026 0018833 248.6581 170.7108 14.86763320347334
SL-3 R/B                
1 13819U 83010B   26192.53328087  .00008879  00000+0  15818-3 0  9997
2 13819  81.0997 209.9652 0013573 337.2461  22.8182 15.49846190377104
SL-3 R/B                
1 14208U 83075B   26192.48921441  .00006297  00000+0  15403-3 0  9990
2 14208  97.6105 201.9933 0021895 142.1015 218.1777 15.40932721349206
COSMOS 1536             
1 14699U 84013A   26192.50296826  .00004200  00000+0  16508-3 0  9991
2 14699  82.5450 344.6202 0013588 201.4449 158.6222 15.25316212291483
SL-14 R/B               
1 14820U 84027B   26192.25291024  .00000236  00000+0  24137-4 0  9992
2 14820  82.5431 129.1503 0016388 285.8943  74.0467 14.86077557265984
SL-8 R/B                
1 15483U 85006B   26190.02099968  .00000116  00000+0  47311-4 0  9998
2 15483  74.0450  37.8842 0019265 281.8181 238.1093 14.37843035171460
